[{"OBJECT_NAME":"STARLINK-31365","OBJECT_ID":"2024-031J","EPOCH":"2026-03-09T21:19:19.090560","MEAN_MOTION":15.30184833,"ECCENTRICITY":0.00011898,"INCLINATION":53.1607,"RA_OF_ASC_NODE":295.7674,"ARG_OF_PERICENTER":93.6804,"MEAN_ANOMALY":266.4333,"EPHEMERIS_TYPE":0,"CLASSIFICATION_TYPE":"U","NORAD_CAT_ID":58973,"ELEMENT_SET_NO":999,"REV_AT_EPOCH":11656,"BSTAR":2.0937015e-5,"MEAN_MOTION_DOT":2.61e-6,"MEAN_MOTION_DDOT":0},{"OBJECT_NAME":"TRANSPORTER-11 OBJECT A","OBJECT_ID":"2024-149A","EPOCH":"2026-03-09T17:54:54.302112","MEAN_MOTION":15.31141332,"ECCENTRICITY":0.00031096,"INCLINATION":97.378,"RA_OF_ASC_NODE":149.0949,"ARG_OF_PERICENTER":191.001,"MEAN_ANOMALY":169.1164,"EPHEMERIS_TYPE":0,"CLASSIFICATION_TYPE":"U","NORAD_CAT_ID":60468,"ELEMENT_SET_NO":999,"REV_AT_EPOCH":8683,"BSTAR":0.00036053677,"MEAN_MOTION_DOT":0.00010774,"MEAN_MOTION_DDOT":0}]
